{
  "norad_id": 53448,
  "name": "JILIN-1 GAOFEN 03D43",
  "history": [
    {
      "epoch": "2026-03-28T22:58:06.001824Z",
      "apogee_km": 391.4088108945243,
      "perigee_km": 388.1323314811616,
      "latitude_deg": -1.2942634774832584e-05,
      "longitude_deg": 42.13538220350665,
      "height_km": 392.68441426985686,
      "semi_major_axis_km": 6767.907571187843,
      "eccentricity": 0.00024206,
      "inclination_deg": 97.5459,
      "raan_deg": 213.0304,
      "arg_perigee_deg": 278.0193,
      "mean_anomaly_deg": 82.0788,
      "mean_motion_rev_day": 15.59269319
    },
    {
      "epoch": "2026-03-29T05:07:44.511168Z",
      "apogee_km": 391.25736225193396,
      "perigee_km": 388.02236491114127,
      "latitude_deg": -1.7930381835006867e-05,
      "longitude_deg": -50.25558348465658,
      "height_km": 392.63014898040416,
      "semi_major_axis_km": 6767.776863581537,
      "eccentricity": 0.000239,
      "inclination_deg": 97.5461,
      "raan_deg": 213.3029,
      "arg_perigee_deg": 275.3977,
      "mean_anomaly_deg": 84.7006,
      "mean_motion_rev_day": 15.59314491
    }
  ]
}